NORAD_CAT_ID,OBJECT_NAME,OBJECT_TYPE,EPOCH,MEAN_MOTION,ECCENTRICITY,INCLINATION,RA_OF_ASC_NODE,ARG_OF_PERICENTER,MEAN_ANOMALY,BSTAR,MEAN_MOTION_DOT,MEAN_MOTION_DDOT,TLE_LINE0,TLE_LINE1,TLE_LINE2,SEMIMAJOR_AXIS,PERIOD,APOGEE,PERIGEE,DECAYED
53749.0,STARLINK-4680,PAYLOAD,2024-02-07 09:55:20,15.0883887,0.0001905,53.2188,81.8004,104.8335,255.2868,9.7102e-05,1.258e-05,0.0,0 STARLINK-4680,1 53749U 22107BB  24038.41342637  .00001258  00000-0  97102-4 0  9996,2 53749  53.2188  81.8004 0001905 104.8335 255.2868 15.08838870 78882,6917.884,95.438,541.067,538.431,0.0
53749.0,STARLINK-4680,PAYLOAD,2024-02-07 19:27:38,15.08840046,0.0001739,53.2182,80.0139,95.17,264.9491,3.6586e-05,2.94e-06,0.0,0 STARLINK-4680,1 53749U 22107BB  24038.81086569  .00000294  00000-0  36586-4 0  9997,2 53749  53.2182  80.0139 0001739  95.1700 264.9491 15.08840046 79720,6917.88,95.438,540.948,538.542,0.0
53749.0,STARLINK-4680,PAYLOAD,2024-02-08 09:46:07,15.08838101,0.0001871,53.2187,77.3375,105.8074,254.3125,3.8711e-05,3.28e-06,0.0,0 STARLINK-4680,1 53749U 22107BB  24039.40703154  .00000328  00000-0  38711-4 0  9999,2 53749  53.2187  77.3375 0001871 105.8074 254.3125 15.08838101 79036,6917.886,95.438,541.046,538.457,0.0
53749.0,STARLINK-4680,PAYLOAD,2024-02-09 11:12:16,15.08852986,0.0001796,53.217,72.5799,101.1863,258.9331,0.00025034,3.7e-05,0.0,0 STARLINK-4680,1 53749U 22107BB  24040.46686335  .00003700  00000-0  25034-3 0  9998,2 53749  53.2170  72.5799 0001796 101.1863 258.9331 15.08852986 79199,6917.841,95.437,540.948,538.463,0.0
53749.0,STARLINK-4680,PAYLOAD,2024-02-10 01:30:46,15.08837437,0.0001922,53.2166,69.9032,82.7617,277.3593,0.00015949,2.251e-05,0.0,0 STARLINK-4680,1 53749U 22107BB  24041.06303405  .00002251  00000-0  15949-3 0  9993,2 53749  53.2166  69.9032 0001922  82.7617 277.3593 15.08837437 79285,6917.888,95.438,541.083,538.424,0.0
53749.0,STARLINK-4680,PAYLOAD,2024-02-10 09:27:41,15.08841075,0.0001576,53.2168,68.4141,83.019,277.0981,0.00013285,1.827e-05,0.0,0 STARLINK-4680,1 53749U 22107BB  24041.39423346  .00001827  00000-0  13285-3 0  9995,2 53749  53.2168  68.4141 0001576  83.0190 277.0981 15.08841075 80112,6917.877,95.437,540.832,538.652,0.0
53749.0,STARLINK-4680,PAYLOAD,2024-02-11 07:43:05,15.08848375,0.0001654,53.2162,64.2521,84.2735,275.8446,0.00023772,3.498e-05,0.0,0 STARLINK-4680,1 53749U 22107BB  24042.32159217  .00003498  00000-0  23772-3 0  9990,2 53749  53.2162  64.2521 0001654  84.2735 275.8446 15.08848375 79476,6917.855,95.437,540.864,538.576,0.0
53749.0,STARLINK-4680,PAYLOAD,2024-02-12 07:33:52,15.08847079,0.0001922,53.2163,59.7931,71.9987,288.1214,0.00026536,3.938e-05,0.0,0 STARLINK-4680,1 53749U 22107BB  24043.31519300  .00003938  00000-0  26536-3 0  9993,2 53749  53.2163  59.7931 0001922  71.9987 288.1214 15.08847079 79628,6917.859,95.437,541.053,538.394,0.0
53749.0,STARLINK-4680,PAYLOAD,2024-02-13 04:13:54,15.08831457,0.0001601,53.2175,55.9256,96.2985,263.819,-2.9571e-05,-7.58e-06,0.0,0 STARLINK-4680,1 53749U 22107BB  24044.17632039 -.00000758  00000-0 -29571-4 0  9995,2 53749  53.2175  55.9256 0001601  96.2985 263.8190 15.08831457 79751,6917.907,95.438,540.879,538.664,0.0
53749.0,STARLINK-4680,PAYLOAD,2024-02-13 10:35:26,15.08836396,0.0001542,53.2167,54.7334,99.5807,260.5359,0.00010996,1.462e-05,0.0,0 STARLINK-4680,1 53749U 22107BB  24044.44127990  .00001462  00000-0  10996-3 0  9991,2 53749  53.2167  54.7334 0001542  99.5807 260.5359 15.08836396 80579,6917.891,95.438,540.823,538.69,0.0
53749.0,STARLINK-4680,PAYLOAD,2024-02-14 04:04:40,15.08845643,0.0001421,53.2174,51.462,95.3714,264.744,0.00025355,3.75e-05,0.0,0 STARLINK-4680,1 53749U 22107BB  24045.16991833  .00003750  00000-0  25355-3 0  9993,2 53749  53.2174  51.4620 0001421  95.3714 264.7440 15.08845643 79903,6917.863,95.437,540.711,538.745,0.0
53749.0,STARLINK-4680,PAYLOAD,2024-02-14 07:15:27,15.08848522,0.0001434,53.2186,50.87,89.6088,270.5068,0.0002888,4.312e-05,0.0,0 STARLINK-4680,1 53749U 22107BB  24045.30239716  .00004312  00000-0  28880-3 0  9995,2 53749  53.2186  50.8700 0001434  89.6088 270.5068 15.08848522 80702,6917.854,95.437,540.711,538.727,0.0
53749.0,STARLINK-4680,PAYLOAD,2024-02-14 16:47:45,15.0884736,0.0002033,53.2192,49.0857,64.8216,295.2987,0.00019902,2.881e-05,0.0,0 STARLINK-4680,1 53749U 22107BB  24045.69983733  .00002881  00000-0  19902-3 0  9996,2 53749  53.2192  49.0857 0002033  64.8216 295.2987 15.08847360 80765,6917.858,95.437,541.129,538.316,0.0
53749.0,STARLINK-4680,PAYLOAD,2024-02-15 03:55:28,15.08824866,0.0001567,53.2197,47.0049,89.5781,270.5391,-0.00012335,-2.25e-05,0.0,0 STARLINK-4680,1 53749U 22107BB  24046.16352872 -.00002250  00000-0 -12335-3 0  9998,2 53749  53.2197  47.0049 0001567  89.5781 270.5391 15.08824866 80056,6917.927,95.439,540.876,538.708,0.0
53749.0,STARLINK-4680,PAYLOAD,2024-02-15 07:06:15,15.08828532,0.0001624,53.2196,46.4126,97.373,262.7447,-7.9571e-05,-1.554e-05,0.0,0 STARLINK-4680,1 53749U 22107BB  24046.29600807 -.00001554  00000-0 -79571-4 0  9998,2 53749  53.2196  46.4126 0001624  97.3730 262.7447 15.08828532 80856,6917.915,95.438,540.904,538.657,0.0
53749.0,STARLINK-4680,PAYLOAD,2024-02-15 16:38:34,15.08832889,0.0001663,53.2194,44.6265,90.8568,269.2615,2.5211e-05,1.13e-06,0.0,0 STARLINK-4680,1 53749U 22107BB  24046.69344944  .00000113  00000-0  25211-4 0  9999,2 53749  53.2194  44.6265 0001663  90.8568 269.2615 15.08832889 80138,6917.902,95.438,540.918,538.617,0.0
53749.0,STARLINK-4680,PAYLOAD,2024-02-16 03:46:15,15.08846288,0.0001569,53.2186,42.5457,90.1394,269.9778,0.00039744,6.044e-05,0.0,0 STARLINK-4680,1 53749U 22107BB  24047.15712671  .00006044  00000-0  39744-3 0  9991,2 53749  53.2186  42.5457 0001569  90.1394 269.9778 15.08846288 80207,6917.861,95.437,540.812,538.641,0.0
53749.0,STARLINK-4680,PAYLOAD,2024-02-16 10:07:48,15.08869832,0.0001593,53.2181,41.3557,86.4646,273.6528,0.0016363,0.00025871,0.0,0 STARLINK-4680,1 53749U 22107BB  24047.42208533  .00025871  00000-0  16363-2 0  9998,2 53749  53.2181  41.3557 0001593  86.4646 273.6528 15.08869832 81021,6917.789,95.436,540.756,538.552,0.0
53749.0,STARLINK-4680,PAYLOAD,2024-02-16 22:50:53,15.08873922,0.0004026,53.2171,38.9763,85.9695,274.1757,0.001276,0.00020099,0.0,0 STARLINK-4680,1 53749U 22107BB  24047.95200595  .00020099  00000-0  12760-2 0  9990,2 53749  53.2171  38.9763 0004026  85.9695 274.1757 15.08873922 81107,6917.777,95.435,542.427,536.857,0.0
53749.0,STARLINK-4680,PAYLOAD,2024-02-17 03:37:02,15.08862234,0.0002564,53.218,38.0797,123.6486,236.4751,0.0010874,0.00017071,0.0,0 STARLINK-4680,1 53749U 22107BB  24048.15071966  .00017071  00000-0  10874-2 0  9991,2 53749  53.2180  38.0797 0002564 123.6486 236.4751 15.08862234 80353,6917.812,95.436,541.451,537.904,0.0
53749.0,STARLINK-4680,PAYLOAD,2024-02-17 06:47:48,15.0886722,0.0001579,53.2178,37.4887,88.3105,271.8068,0.00081528,0.00012721,0.0,0 STARLINK-4680,1 53749U 22107BB  24048.28319910  .00012721  00000-0  81528-3 0  9991,2 53749  53.2178  37.4887 0001579  88.3105 271.8068 15.08867220 81156,6917.797,95.436,540.755,538.57,0.0
53749.0,STARLINK-4680,PAYLOAD,2024-02-17 16:20:07,15.08849937,0.0001796,53.2189,35.7054,80.1167,280.0028,0.00035459,5.361e-05,0.0,0 STARLINK-4680,1 53749U 22107BB  24048.68064094  .00005361  00000-0  35459-3 0  9999,2 53749  53.2189  35.7054 0001796  80.1167 280.0028 15.08849937 80437,6917.85,95.437,540.957,538.473,0.0
53749.0,STARLINK-4680,PAYLOAD,2024-02-17 22:41:40,15.08849701,0.0002293,53.2179,34.5196,77.7934,282.3315,0.00038957,5.919e-05,0.0,0 STARLINK-4680,1 53749U 22107BB  24048.94560310  .00005919  00000-0  38957-3 0  9995,2 53749  53.2179  34.5196 0002293  77.7934 282.3315 15.08849701 81251,6917.851,95.437,541.302,538.129,0.0
53749.0,STARLINK-4680,PAYLOAD,2024-02-18 03:27:49,15.08837826,0.0002436,53.2184,33.6231,86.0247,274.1024,0.00019744,2.855e-05,0.0,0 STARLINK-4680,1 53749U 22107BB  24049.14432652  .00002855  00000-0  19744-3 0  9994,2 53749  53.2184  33.6231 0002436  86.0247 274.1024 15.08837826 80504,6917.887,95.438,541.437,538.067,0.0
53749.0,STARLINK-4680,PAYLOAD,2024-02-18 08:13:58,15.08848536,0.0001591,53.2164,32.7301,89.0267,271.0907,0.00084924,0.00013257,0.0,0 STARLINK-4680,1 53749U 22107BB  24049.34304331  .00013257  00000-0  84924-3 0  9998,2 53749  53.2164  32.7301 0001591  89.0267 271.0907 15.08848536 80535,6917.854,95.437,540.82,538.619,0.0
53749.0,STARLINK-4680,PAYLOAD,2024-02-18 16:10:54,15.08844035,0.0001633,53.2177,31.2432,94.3703,265.7476,0.00085037,0.00013273,0.0,0 STARLINK-4680,1 53749U 22107BB  24049.67424589  .00013273  00000-0  85037-3 0  9996,2 53749  53.2177  31.2432 0001633  94.3703 265.7476 15.08844035 80585,6917.868,95.437,540.863,538.603,0.0
53749.0,STARLINK-4680,PAYLOAD,2024-02-19 08:04:45,15.08854889,0.0001587,53.2181,28.267,104.2801,255.8367,0.00074857,0.0001165,0.0,0 STARLINK-4680,1 53749U 22107BB  24050.33664172  .00011650  00000-0  74857-3 0  9990,2 53749  53.2181  28.2670 0001587 104.2801 255.8367 15.08854889 81463,6917.835,95.437,540.798,538.602,0.0
53749.0,STARLINK-4680,PAYLOAD,2024-02-19 16:01:42,15.08836238,0.0001841,53.22,26.7829,83.4995,276.6207,0.0001098,1.46e-05,0.0,0 STARLINK-4680,1 53749U 22107BB  24050.66784857  .00001460  00000-0  10980-3 0  9994,2 53749  53.2200  26.7829 0001841  83.4995 276.6207 15.08836238 80730,6917.892,95.438,541.03,538.483,0.0
53749.0,STARLINK-4680,PAYLOAD,2024-02-19 22:23:14,15.08838536,0.0002145,53.2159,25.5928,86.7247,273.3991,0.00020553,2.984e-05,0.0,0 STARLINK-4680,1 53749U 22107BB  24050.93281019  .00002984  00000-0  20553-3 0  9995,2 53749  53.2159  25.5928 0002145  86.7247 273.3991 15.08838536 81552,6917.885,95.438,541.234,538.266,0.0
53749.0,STARLINK-4680,PAYLOAD,2024-02-20 04:44:47,15.08839318,0.0001701,53.2186,24.4051,88.7883,271.3304,0.00045606,6.977e-05,0.0,0 STARLINK-4680,1 53749U 22107BB  24051.19777139  .00006977  00000-0  45606-3 0  9999,2 53749  53.2186  24.4051 0001701  88.7883 271.3304 15.08839318 81591,6917.882,95.438,540.924,538.571,0.0
